QIANFAN-41              
1 62242U 24232F   26025.83036195  .00000057  00000+0  70228-4 0  9993
2 62242  89.0000  36.7420 0015774  67.2786 293.0030 13.50983416105202
QIANFAN-42              
1 62243U 24232G   26025.81621784  .00000233  00000+0  94320-4 0  9991
2 62243  88.9997  32.3155 0013078 305.8331  54.1646 14.24510848107641
QIANFAN-43              
1 62244U 24232H   26025.82624060  .00000050  00000+0  59302-4 0  9991
2 62244  89.0005  36.8098 0017356  71.6880 288.6158 13.50982399 73814
QIANFAN-44              
1 62245U 24232J   26025.81387251  .00000045  00000+0  51071-4 0  9998
2 62245  89.0003  36.6210 0015542  69.3701 290.9115 13.50984704105286
QIANFAN-45              
1 62246U 24232K   26025.78105097  .00000040  00000+0  43538-4 0  9995
2 62246  89.0005  36.7730 0016267  68.9521 291.3368 13.50989751105201
QIANFAN-46              
1 62247U 24232L   26025.80567429  .00000051  00000+0  59965-4 0  9993
2 62247  89.0003  36.8372 0016308  73.8667 286.4278 13.50982792105163
QIANFAN-47              
1 62248U 24232M   26025.80982589  .00000046  00000+0  52302-4 0  9994
2 62248  88.9999  36.7680 0016737  73.0006 287.2977 13.50982789105196
QIANFAN-48              
1 62249U 24232N   26025.84679700  .00000031  00000+0  29873-4 0  9998
2 62249  89.0003  36.7678 0019013  74.9753 285.3500 13.50984022105206
